[{"OBJECT_NAME":"NUSHSAT1","OBJECT_ID":"2025-052B","EPOCH":"2026-03-09T15:31:41.225952","MEAN_MOTION":15.31903202,"ECCENTRICITY":0.0005501,"INCLINATION":97.4095,"RA_OF_ASC_NODE":325.7239,"ARG_OF_PERICENTER":84.7512,"MEAN_ANOMALY":275.4357,"EPHEMERIS_TYPE":0,"CLASSIFICATION_TYPE":"U","NORAD_CAT_ID":63211,"ELEMENT_SET_NO":999,"REV_AT_EPOCH":5488,"BSTAR":0.00074857,"MEAN_MOTION_DOT":0.00023034,"MEAN_MOTION_DDOT":0},{"OBJECT_NAME":"STARLINK-35830","OBJECT_ID":"2025-247V","EPOCH":"2026-03-09T13:35:23.927424","MEAN_MOTION":15.30187075,"ECCENTRICITY":0.000101,"INCLINATION":53.1572,"RA_OF_ASC_NODE":192.0895,"ARG_OF_PERICENTER":83.5422,"MEAN_ANOMALY":276.5694,"EPHEMERIS_TYPE":0,"CLASSIFICATION_TYPE":"U","NORAD_CAT_ID":66284,"ELEMENT_SET_NO":999,"REV_AT_EPOCH":2101,"BSTAR":0.00059804,"MEAN_MOTION_DOT":0.00017388,"MEAN_MOTION_DDOT":0}]
